0 SL-14 R/B
1 17242U 86101B   13282.43536851  .00000002  00000-0 -11836-4 0  1823
2 17242 082.5343 013.4491 0014612 217.2758 191.3408 13.83234456353546
0 SL-14 R/B
1 17242U 86101B   13283.82805258  .00000024  00000-0  82676-5 0  1832
2 17242 082.5344 012.3426 0014688 213.1838 286.6023 13.83234523353737
0 SL-14 R/B
1 17242U 86101B   13286.19927852  .00000031  00000-0  15227-4 0  1857
2 17242 082.5344 010.4589 0014831 206.2969 214.7064 13.83234277354064
0 SL-14 R/B
1 17242U 86101B   13287.20548772  .00000044  00000-0  27102-4 0  1860
2 17242 082.5342 009.6595 0014894 203.4247 185.3232 13.83234167354200
0 SL-14 R/B
1 17242U 86101B   13288.29648612  .00000052  00000-0  34210-4 0  1872
2 17242 082.5340 008.7928 0014969 200.3870 218.0875 13.83234196354354
0 SL-14 R/B
1 17242U 86101B   13289.54051262  .00000052  00000-0  34294-4 0  1883
2 17242 082.5338 007.8046 0015046 197.0302 292.7674 13.83234288354528
0 SL-14 R/B
1 17242U 86101B   13290.76804494  .00000049  00000-0  31121-4 0  1895
2 17242 082.5335 006.8293 0015122 193.5411 285.4905 13.83234504354690
0 SL-14 R/B
1 17242U 86101B   13291.78421172  .00000047  00000-0  29746-4 0  1906
2 17242 082.5333 006.0219 0015188 190.6780 305.6556 13.83234626354835
0 SL-14 R/B
1 17242U 86101B   13292.86099012  .00000036  00000-0  19068-4 0  1915
2 17242 082.5331 005.1662 0015264 187.6531 267.6370 13.83234739354982
0 SL-14 R/B
1 17242U 86101B   13294.14745269  .00000023  00000-0  74352-5 0  1925
2 17242 082.5330 004.1441 0015354 184.1276 193.6844 13.83234925355165
0 SL-14 R/B
1 17242U 86101B   13295.16775358  .00000022  00000-0  66655-5 0  1937
2 17242 082.5330 003.3333 0015422 181.2623 234.4279 13.83234958355304
0 SL-14 R/B
1 17242U 86101B   13296.17502550  .00000025  00000-0  94390-5 0  1942
2 17242 082.5330 002.5330 0015489 178.5458 210.1798 13.83234983355440
